{
"type": "FeatureCollection",
"name": "end_points",
"crs": { "type": "name", "properties": { "name": "urn:ogc:def:crs:OGC:1.3:CRS84" } },
"features": [
{ "type": "Feature", "properties": { "name": "1", "role": "end" }, "geometry": { "type": "Point", "coordinates": [ 30.278437369600919, 59.942659909855749 ] } },
{ "type": "Feature", "properties": { "name": "2", "role": "end" }, "geometry": { "type": "Point", "coordinates": [ 30.278146495111919, 59.942722315917791 ] } },
{ "type": "Feature", "properties": { "name": "3", "role": "end" }, "geometry": { "type": "Point", "coordinates": [ 30.234422615624915, 59.948525386349004 ] } },
{ "type": "Feature", "properties": { "name": "4", "role": "end" }, "geometry": { "type": "Point", "coordinates": [ 30.234436898837931, 59.948549408671227 ] } },
{ "type": "Feature", "properties": { "name": "5", "role": "end" }, "geometry": { "type": "Point", "coordinates": [ 30.234507416587736, 59.94858431748299 ] } },
{ "type": "Feature", "properties": { "name": "6", "role": "end" }, "geometry": { "type": "Point", "coordinates": [ 30.284094689765716, 59.947496953714953 ] } },
{ "type": "Feature", "properties": { "name": "7", "role": "end" }, "geometry": { "type": "Point", "coordinates": [ 30.260820688227103, 59.932311612498822 ] } },
{ "type": "Feature", "properties": { "name": "8", "role": "end" }, "geometry": { "type": "Point", "coordinates": [ 30.261414744124494, 59.932650383277696 ] } },
{ "type": "Feature", "properties": { "name": "9", "role": "end" }, "geometry": { "type": "Point", "coordinates": [ 30.283447273940453, 59.947710686425111 ] } },
{ "type": "Feature", "properties": { "name": "10", "role": "end" }, "geometry": { "type": "Point", "coordinates": [ 30.284870385013555, 59.947836514109504 ] } },
{ "type": "Feature", "properties": { "name": "11", "role": "end" }, "geometry": { "type": "Point", "coordinates": [ 30.283237786816194, 59.948287321495407 ] } },
{ "type": "Feature", "properties": { "name": "12", "role": "end" }, "geometry": { "type": "Point", "coordinates": [ 30.283945479597023, 59.948167523663372 ] } }
]
}
